STARLINK-37839          
1 69496U 26131U   26185.02103575  .00324513  00000+0  16212-2 0  9993
2 69496  97.2833 206.2893 0001713 128.5403 231.6019 15.80970969  3563
STARLINK-37798          
1 69497U 26131V   26185.51954522  .00464483  00000+0  22761-2 0  9991
2 69497  97.2826 206.8350 0000556  37.0900 323.0407 15.81032158  3646
STARLINK-37853          
1 69498U 26131W   26185.00938995  .00315984  00000+0  15809-2 0  9998
2 69498  97.2844 206.3055 0001250 109.9839 250.1564 15.80960310  3560
STARLINK-37849          
1 69499U 26131X   26185.32664608  .00656799  00000+0  31337-2 0  9997
2 69499  97.2835 206.6390 0001591 145.2967 214.8405 15.81126251  3615
STARLINK-37835          
1 69500U 26131Y   26185.32814460  .00515864  00000+0  24971-2 0  9996
2 69500  97.2832 206.6367 0001982 120.3624 239.7840 15.81171544  3611
STARLINK-37843          
1 69501U 26131Z   26185.51729414  .00478010  00000+0  23455-2 0  9999
2 69501  97.2832 206.8396 0001046  77.5643 282.5742 15.80969863  3649
STARS-X                 
1 69502U 26132A   26185.91064499  .00002041  00000+0  17263-3 0  9998
2 69502  97.6881 249.3510 0013670 202.8251 157.2366 14.99087521  3430
2026-132B               
1 69503U 26132B   26185.90931643  .00001673  00000+0  14217-3 0  9998
2 69503  97.6910 249.3617 0013571 204.9107 155.1462 14.99168296  3438
BRO-22                  
1 69504U 26132C   26185.63296298  .00001802  00000+0  15021-3 0  9997
2 69504  97.6838 249.0900 0015468 219.4906 140.5191 14.99789514  3399
HORN-L                  
1 69505U 26132D   26185.17090958  .00004526  00000+0  29468-3 0  9998
2 69505  97.6898 248.7806 0023582 237.6046 122.2900 15.08239687  3331
VERTECS                 
1 69506U 26132E   26185.61585594  .00004783  00000+0  37894-3 0  9990
2 69506  97.6847 249.1231 0014386 242.3066 117.6699 15.00964016  3381
HORN-R                  
1 69507U 26132F   26185.19215574  .00002033  00000+0  14950-3 0  9996
2 69507  97.6788 248.7351 0016898 236.3621 123.5994 15.04449432  3326
STARLINK-37536          
1 69508U 26133A   26185.91670139  .00086437  00000+0  15489-2 0  9997
2 69508  53.1601 233.9974 0001300  71.2870 189.2203 15.49238800  4821
STARLINK-37341          
1 69509U 26133B   26185.91670139  .00088471  00000+0  15852-2 0  9992
2 69509  53.1602 234.0181 0001468  64.9557 185.2454 15.49229242  4825
STARLINK-36536          
1 69510U 26133C   26185.91670139 -.01949646  00000+0 -24454-1 0  9994
2 69510  53.1599 233.4304 0001206  77.4264 102.4844 15.62423261  4765
STARLINK-37420          
1 69511U 26133D   26185.91670139 -.02541769  00000+0 -26454-1 0  9992
2 69511  53.1602 233.2829 0000938  72.1038 179.4392 15.67426799  4714
STARLINK-37511          
1 69512U 26133E   26185.91670139 -.02093728  00000+0 -21091-1 0  9992
2 69512  53.1600 233.2943 0000945  70.7981 175.4456 15.68103841  4717
STARLINK-37552          
1 69513U 26133F   26185.91670139 -.00181344  00000+0 -33133-2 0  9994
2 69513  53.1600 234.0101 0002158  46.9417 206.2997 15.49436282  4710
STARLINK-37607          
1 69514U 26133G   26185.91670139 -.02583144  00000+0 -29038-1 0  9999
2 69514  53.1600 233.2652 0001033  89.3187 171.0490 15.65601364  4719
STARLINK-37232          
1 69515U 26133H   26185.91670139  .00094414  00000+0  16903-2 0  9991
2 69515  53.1593 233.7273 0001369 105.7352 285.8935 15.49221621  4718
STARLINK-37323          
1 69516U 26133J   26185.91670139 -.01494224  00000+0 -13991-1 0  9991
2 69516  53.1598 233.1581 0000540  52.9602 258.7320 15.69319482  4713
STARLINK-37357          
1 69517U 26133K   26185.91670139 -.00173668  00000+0 -31666-2 0  9997
2 69517  53.1602 233.9981 0000773 104.7457 152.5521 15.49467764  4713
STARLINK-37408          
1 69518U 26133L   26185.91670139 -.02457516  00000+0 -34858-1 0  9992
2 69518  53.1601 233.3287 0001292  79.0258 148.4789 15.59518587  4717
STARLINK-37570          
1 69519U 26133M   26185.91670139  .00084415  00000+0  15135-2 0  9991
2 69519  53.1595 233.7538 0000972  86.4014 290.3937 15.49232461  4714
STARLINK-37510          
1 69520U 26133N   26185.91670139  .00096243  00000+0  17237-2 0  9990
2 69520  53.1592 233.7030 0000631 106.2578 296.4377 15.49201806  4712
STARLINK-37586          
1 69521U 26133P   26185.91670139 -.02538550  00000+0 -26098-1 0  9991
2 69521  53.1595 232.9930 0000891  74.7718 315.9410 15.67720873  4725
STARLINK-37379          
1 69522U 26133Q   26185.91670139 -.02307350  00000+0 -41406-1 0  9994
2 69522  53.1596 233.4015 0001555  52.3878 137.7007 15.53004188  4769
STARLINK-37429          
1 69523U 26133R   26185.91670139 -.00066863  00000+0 -12043-2 0  9990
2 69523  53.1597 233.8146 0001317  72.1966 273.7680 15.49311501  4767
STARLINK-37352          
1 69524U 26133S   26185.91670139 -.02179312  00000+0 -40175-1 0  9993
2 69524  53.1596 233.3817 0001224  76.1504 122.9601 15.52055504  4766
STARLINK-37490          
1 69525U 26133T   26185.91670139 -.02528198  00000+0 -33138-1 0  9995
2 69525  53.1597 233.0080 0000824  76.6573 305.5509 15.61667355  4762
