OBJECT_NAME,OBJECT_ID,EPOCH,MEAN_MOTION,ECCENTRICITY,INCLINATION,RA_OF_ASC_NODE,ARG_OF_PERICENTER,MEAN_ANOMALY,EPHEMERIS_TYPE,CLASSIFICATION_TYPE,NORAD_CAT_ID,ELEMENT_SET_NO,REV_AT_EPOCH,BSTAR,MEAN_MOTION_DOT,MEAN_MOTION_DDOT
STARLINK-37839,2026-131U,2026-07-04T00:30:17.488800,15.80970969,.00017138,97.2833,206.2893,128.5403,231.6019,0,U,69496,999,356,.16211912E-2,.324513E-2,0
STARLINK-37798,2026-131V,2026-07-04T12:28:08.707008,15.81032158,.00005565,97.2826,206.8350,37.0900,323.0407,0,U,69497,999,364,.22761147E-2,.464483E-2,0
STARLINK-37853,2026-131W,2026-07-04T00:13:31.291680,15.80960310,.00012506,97.2844,206.3055,109.9839,250.1564,0,U,69498,999,356,.1580917E-2,.315984E-2,0
STARLINK-37849,2026-131X,2026-07-04T07:50:22.221312,15.81126251,.00015914,97.2835,206.6390,145.2967,214.8405,0,U,69499,999,361,.31337051E-2,.656799E-2,0
STARLINK-37835,2026-131Y,2026-07-04T07:52:31.693440,15.81171544,.00019824,97.2832,206.6367,120.3624,239.7840,0,U,69500,999,361,.24971482E-2,.515864E-2,0
STARLINK-37843,2026-131Z,2026-07-04T12:24:54.213696,15.80969863,.00010461,97.2832,206.8396,77.5643,282.5742,0,U,69501,999,364,.23454713E-2,.47801E-2,0
STARS-X,2026-132A,2026-07-04T21:51:19.727136,14.99087521,.00136709,97.6881,249.3510,202.8251,157.2366,0,U,69502,999,343,.17262923E-3,.2041E-4,0
2026-132B,2026-132B,2026-07-04T21:49:24.939552,14.99168296,.00135718,97.6910,249.3617,204.9107,155.1462,0,U,69503,999,343,.14217361E-3,.1673E-4,0
BRO-22,2026-132C,2026-07-04T15:11:28.001472,14.99789514,.00154689,97.6838,249.0900,219.4906,140.5191,0,U,69504,999,339,.15020797E-3,.1802E-4,0
HORN-L,2026-132D,2026-07-04T04:06:06.587712,15.08239687,.00235822,97.6898,248.7806,237.6046,122.2900,0,U,69505,999,333,.29467629E-3,.4526E-4,0
VERTECS,2026-132E,2026-07-04T14:46:49.953216,15.00964016,.00143866,97.6847,249.1231,242.3066,117.6699,0,U,69506,999,338,.37893581E-3,.4783E-4,0
HORN-R,2026-132F,2026-07-04T04:36:42.255936,15.04449432,.00168982,97.6788,248.7351,236.3621,123.5994,0,U,69507,999,332,.14950121E-3,.2033E-4,0
STARLINK-37536,2026-133A,2026-07-04T22:00:03.000096,15.49238800,.00013003,53.1601,233.9974,71.2870,189.2203,0,U,69508,999,482,.15488564E-2,.86437E-3,0
STARLINK-37341,2026-133B,2026-07-04T22:00:03.000096,15.49229242,.00014686,53.1602,234.0181,64.9557,185.2454,0,U,69509,999,482,.1585231E-2,.88471E-3,0
STARLINK-36536,2026-133C,2026-07-04T22:00:03.000096,15.62423261,.00012061,53.1599,233.4304,77.4264,102.4844,0,U,69510,999,476,-.24453952E-1,-.1949646E-1,0
STARLINK-37420,2026-133D,2026-07-04T22:00:03.000096,15.67426799,.00009386,53.1602,233.2829,72.1038,179.4392,0,U,69511,999,471,-.26454148E-1,-.2541769E-1,0
STARLINK-37511,2026-133E,2026-07-04T22:00:03.000096,15.68103841,.00009459,53.1600,233.2943,70.7981,175.4456,0,U,69512,999,471,-.21090911E-1,-.2093728E-1,0
STARLINK-37552,2026-133F,2026-07-04T22:00:03.000096,15.49436282,.00021582,53.1600,234.0101,46.9417,206.2997,0,U,69513,999,471,-.33132622E-2,-.181344E-2,0
STARLINK-37607,2026-133G,2026-07-04T22:00:03.000096,15.65601364,.00010336,53.1600,233.2652,89.3187,171.0490,0,U,69514,999,471,-.29038398E-1,-.2583144E-1,0
STARLINK-37232,2026-133H,2026-07-04T22:00:03.000096,15.49221621,.00013693,53.1593,233.7273,105.7352,285.8935,0,U,69515,999,471,.16903478E-2,.94414E-3,0
STARLINK-37323,2026-133J,2026-07-04T22:00:03.000096,15.69319482,.00005403,53.1598,233.1581,52.9602,258.7320,0,U,69516,999,471,-.13991275E-1,-.1494224E-1,0
STARLINK-37357,2026-133K,2026-07-04T22:00:03.000096,15.49467764,.00007731,53.1602,233.9981,104.7457,152.5521,0,U,69517,999,471,-.31665737E-2,-.173668E-2,0
STARLINK-37408,2026-133L,2026-07-04T22:00:03.000096,15.59518587,.0001292,53.1601,233.3287,79.0258,148.4789,0,U,69518,999,471,-.34858258E-1,-.2457516E-1,0
STARLINK-37570,2026-133M,2026-07-04T22:00:03.000096,15.49232461,.00009723,53.1595,233.7538,86.4014,290.3937,0,U,69519,999,471,.15135459E-2,.84415E-3,0
STARLINK-37510,2026-133N,2026-07-04T22:00:03.000096,15.49201806,.0000631,53.1592,233.7030,106.2578,296.4377,0,U,69520,999,471,.17237273E-2,.96243E-3,0
STARLINK-37586,2026-133P,2026-07-04T22:00:03.000096,15.67720873,.00008913,53.1595,232.9930,74.7718,315.9410,0,U,69521,999,472,-.26097757E-1,-.253855E-1,0
STARLINK-37379,2026-133Q,2026-07-04T22:00:03.000096,15.53004188,.0001555,53.1596,233.4015,52.3878,137.7007,0,U,69522,999,476,-.41406229E-1,-.230735E-1,0
STARLINK-37429,2026-133R,2026-07-04T22:00:03.000096,15.49311501,.00013174,53.1597,233.8146,72.1966,273.7680,0,U,69523,999,476,-.12043008E-2,-.66863E-3,0
STARLINK-37352,2026-133S,2026-07-04T22:00:03.000096,15.52055504,.00012243,53.1596,233.3817,76.1504,122.9601,0,U,69524,999,476,-.40174902E-1,-.2179312E-1,0
STARLINK-37490,2026-133T,2026-07-04T22:00:03.000096,15.61667355,.00008241,53.1597,233.0080,76.6573,305.5509,0,U,69525,999,476,-.3313832E-1,-.2528198E-1,0
